STARLINK-30095          
1 56289U 23056D   23120.58334491  .00204001  00000+0  12566-2 0  9999
2 56289  43.0019 136.0539 0000985 297.6814 193.2809 15.75802883  1308
STARLINK-30103          
1 56290U 23056E   23120.58334491 -.01255592  00000+0 -18228-1 0  9995
2 56290  43.0020 136.6540 0001345 272.0061 336.6601 15.57579702  1306
STARLINK-30113          
1 56291U 23056F   23120.66667824 -.01280750  00000+0 -18764-1 0  9993
2 56291  43.0021 136.1589 0001516 275.1801  81.9717 15.57388873  2229
STARLINK-30098          
1 56292U 23056G   23120.66667824 -.01280614  00000+0 -18742-1 0  9999
2 56292  43.0022 136.1564 0001509 269.0777  89.1111 15.57416878  2225
STARLINK-30090          
1 56293U 23056H   23120.91667824 -.01143744  00000+0 -17297-1 0  9994
2 56293  43.0020 134.6806 0001474 263.5360  57.3559 15.56683670  2266
STARLINK-30049          
1 56294U 23056J   23120.66667824 -.00707210  00000+0 -89023-2 0  9997
2 56294  43.0021 136.1062 0001529 273.3133 105.4183 15.61083230  2223
STARLINK-30083          
1 56295U 23056K   23120.66667824  .00142021  00000+0  86468-3 0  9990
2 56295  43.0019 135.5330 0000794 285.7841 324.0521 15.76259186  2235
STARLINK-30089          
1 56296U 23056L   23120.66667824  .00187025  00000+0  10684-2 0  9990
2 56296  43.0015 135.4808 0000325 274.1090 356.5627 15.77555812  2232
STARLINK-30086          
1 56297U 23056M   23120.66667824 -.00711454  00000+0 -89445-2 0  9993
2 56297  43.0023 136.1022 0001460 268.4120 111.9930 15.61129641  2228
STARLINK-30109          
1 56298U 23056N   23120.58334491 -.00676174  00000+0 -84390-2 0  9999
2 56298  43.0022 136.6010 0001424 266.2291   4.3151 15.61204538  1302
STARLINK-30108          
1 56299U 23056P   23120.00001157  .00160733  00000+0  13601-2 0  9991
2 56299  43.0023 139.9526 0001567 267.8578   5.8196 15.68456185  1304
STARLINK-30104          
1 56300U 23056Q   23120.58334491 -.01231961  00000+0 -18017-1 0  9997
2 56300  43.0026 136.6416 0001359 265.7314 348.1240 15.57790419  1308
STARLINK-30101          
1 56301U 23056R   23120.91667824 -.01143486  00000+0 -17173-1 0  9990
2 56301  43.0024 134.6700 0001474 266.9683  58.3210 15.56868148  2268
STARLINK-30111          
1 56302U 23056S   23120.58334491 -.00677106  00000+0 -84313-2 0  9996
2 56302  43.0024 136.5952 0001407 267.0862   5.7497 15.61266455  1302
STARLINK-30097          
1 56303U 23056T   23120.58334491 -.00675778  00000+0 -84165-2 0  9995
2 56303  43.0024 136.5962 0001385 269.7285   2.7807 15.61257043  1302
STARLINK-30099          
1 56304U 23056U   23120.66667824 -.01280291  00000+0 -18481-1 0  9994
2 56304  43.0025 136.1404 0001516 269.4334  95.5613 15.57779739  2222
STARLINK-30094          
1 56305U 23056V   23120.58334491 -.00677108  00000+0 -84231-2 0  9990
2 56305  43.0024 136.5924 0001431 270.1133   3.7290 15.61291298  1309
STARLINK-30112          
1 56306U 23056W   23120.58334491 -.00677503  00000+0 -84341-2 0  9992
2 56306  43.0023 136.5944 0001452 271.2809   1.9065 15.61273893  1307
2023-057A               
1 56308U 23057A   23120.65934923  .00000660  00000+0  00000+0 0  9998
2 56308   9.8876 249.8654 0022971 338.7522  21.1845 14.88284031  1237
2023-057B               
1 56309U 23057B   23120.57181997  .00000689  00000+0  00000+0 0  9996
2 56309   9.9932 250.0395 0011048  86.0628   2.1118 14.95022055  1226
2023-057C               
1 56310U 23057C   23120.57759956  .00000680  00000+0  00000+0 0  9995
2 56310   9.9865 250.0495 0005923  92.5685   7.1081 14.94354240  1221
ARKSAT 1                
1 56311U 98067VC  23120.54008574  .00046698  00000+0  77195-3 0  9991
2 56311  51.6391 204.6178 0007846 290.1170  69.8975 15.51719860   957
AURORASAT               
1 56312U 98067VD  23120.54014869  .00047588  00000+0  78669-3 0  9992
2 56312  51.6390 204.6180 0007784 289.7500  70.2650 15.51711180   988
EX-ALTA-2               
1 56313U 98067VE  23120.54022682  .00046723  00000+0  77331-3 0  9990
2 56313  51.6390 204.6185 0007729 289.3904  70.6250 15.51686434   979
LIGHTCUBE               
1 56314U 98067VF  23120.54092363  .00052628  00000+0  87378-3 0  9997
2 56314  51.6388 204.6229 0007722 273.2240  86.7866 15.51546318  1006
NEUDOSE                 
1 56315U 98067VG  23120.79889652  .00036206  00000+0  60837-3 0  9995
2 56315  51.6388 203.3454 0007886 273.3234  86.6853 15.51379319   995
YUKONSAT                
1 56316U 98067VH  23120.67004266  .00043880  00000+0  73408-3 0  9997
2 56316  51.6390 203.9852 0007765 273.0859  86.9241 15.51413471   995
2023-059A               
1 56367U 23059A   23120.51372977  .00000048  00000+0  00000+0 0  9995
2 56367   8.5993  20.3727 1878039 184.9357 172.9286  7.26274931   148
2023-059B               
1 56368U 23059B   23120.51349147  .00000048  00000+0  00000+0 0  9999
2 56368   8.6014  20.3944 1879290 184.9198 172.9529  7.26396851   122
2023-059C               
1 56369U 23059C   23120.51284503  .00000048  00000+0  00000+0 0  9994
2 56369   8.5980  20.3838 1880508 185.0193 172.8089  7.26704352   115
